OBJECT_NAME,OBJECT_ID,EPOCH,MEAN_MOTION,ECCENTRICITY,INCLINATION,RA_OF_ASC_NODE,ARG_OF_PERICENTER,MEAN_ANOMALY,EPHEMERIS_TYPE,CLASSIFICATION_TYPE,NORAD_CAT_ID,ELEMENT_SET_NO,REV_AT_EPOCH,BSTAR,MEAN_MOTION_DOT,MEAN_MOTION_DDOT
CUBEBUG-2 (LO-74),2013-066AA,2026-07-23T08:47:27.947616,14.94006894,.0055478,97.8915,153.5078,267.5794,91.9073,0,U,39440,999,68239,.23555301E-3,.2525E-4,0
FUNCUBE-1 (AO-73),2013-066AE,2026-07-23T12:15:07.742592,15.09909897,.00381492,97.8300,176.7303,80.8155,279.7386,0,U,39444,999,68514,.46628381E-3,.7621E-4,0
UWE-3,2013-066AG,2026-07-23T07:21:38.012544,14.97241976,.00478561,97.8729,160.6343,196.8794,163.0837,0,U,39446,999,68298,.26351513E-3,.3059E-4,0
UNISAT-6,2014-033C,2026-07-23T08:53:40.827552,14.88391794,.00436555,97.7918,356.4577,310.2648,49.4755,0,U,40012,999,65154,.21532619E-3,.1973E-4,0
DUCHIFAT-1,2014-033M,2026-07-23T03:04:09.829920,15.72917144,.00038964,98.0412,268.5702,226.4566,133.6372,0,U,40021,999,66138,.12882256E-2,.177994E-2,0
QB50P1,2014-033R,2026-07-22T19:10:54.290208,15.18749882,.00105654,98.0975,217.4558,102.9257,257.3156,0,U,40025,999,65843,.41699772E-3,.8602E-4,0
LILACSAT-2,2015-049K,2026-07-23T13:42:10.265760,15.52595911,.00086275,97.4631,242.8176,117.1327,243.0807,0,U,40908,999,60139,.33605021E-3,.20606E-3,0
FOX-1A (AO-85),2015-058D,2026-07-23T07:15:55.096128,14.91129767,.01330713,64.7741,166.7325,42.7370,318.3997,0,U,40967,999,11895,.33668989E-3,.3792E-4,0
CAS-2T & KS-1Q,2016-066G,2026-07-23T11:04:37.520832,14.44780560,.03417865,98.3807,279.7826,19.7084,341.6950,0,U,41847,999,51003,.98273791E-4,.639E-5,0
RADFXSAT (FOX-1B),2017-073E,2026-07-23T12:25:45.785856,15.13146521,.01486765,97.4662,70.9927,202.5578,156.9074,0,U,43017,999,47088,.36401771E-3,.8409E-4,0
DIWATA-2B,2018-084H,2026-07-23T13:54:36.393696,15.00585830,.00122747,98.1225,42.3836,58.3697,301.8722,0,U,43678,999,42167,.14994292E-3,.183E-4,0
ES'HAIL 2,2018-090A,2026-07-23T13:06:23.457312,1.00273645,.00027018,0.0186,49.6880,107.0586,6.9459,0,U,43700,999,2804,0,0,0
FOX-1CLIFF (AO-95),2018-099N,2026-07-23T02:49:04.895328,15.27399464,.00079561,97.4362,264.2441,208.6564,151.4239,0,U,43770,999,41870,.48430392E-3,.12936E-3,0
ITASAT,2018-099AE,2026-07-23T13:49:02.317728,15.19457884,.00114415,97.4011,255.3665,217.9737,142.0692,0,U,43786,999,41843,.30659107E-3,.6444E-4,0
JY1SAT (JO-97),2018-099AX,2026-07-23T10:11:16.292832,15.34728198,.0007346,97.4109,267.4075,133.9181,226.2670,0,U,43803,999,41918,.53039862E-3,.17809E-3,0
UWE-4,2018-111E,2026-07-23T13:29:00.668256,15.48239728,.0007593,97.5824,134.6875,165.1813,194.9661,0,U,43880,999,41640,.65420492E-3,.34517E-3,0
TIANYAN 01,2019-093C,2026-07-23T14:16:30.327744,14.86567615,.00128445,97.7513,275.9367,333.3636,26.6919,0,U,44881,999,35682,.28875147E-4,.203E-5,0
RS-44 & BREEZE-KM R/B,2019-096E,2026-07-23T14:14:45.510720,12.79748902,.02183501,82.5245,315.5155,59.4462,302.7988,0,U,44909,999,30700,-.22705129E-4,.7E-7,0
SALSAT,2020-068K,2026-07-23T10:36:40.860576,15.30258663,.00100914,97.8868,209.7289,164.5021,195.6529,0,U,46495,999,32090,.2545612E-3,.7378E-4,0
XW-3 (CAS-9),2021-131B,2026-07-23T15:18:52.454304,14.41387415,.00040352,98.4981,296.8315,8.2020,351.9235,0,U,50466,999,24036,.15326804E-3,.452E-5,0
GREENCUBE (IO-117),2022-080E,2026-07-22T16:03:56.210112,6.42583354,.00093274,70.1381,285.9076,282.2706,77.6909,0,U,53109,999,9434,0,-.3E-7,0
UMKA 1 (RS40S),2023-091G,2026-07-23T14:32:32.339904,15.21189567,.00121727,97.5031,263.1676,0.7781,359.3471,0,U,57172,999,16954,.24696867E-3,.5446E-4,0
CUBESX-HSE 3 (RS42S),2023-091N,2026-07-23T13:30:57.525120,15.32039958,.00089224,97.5073,270.6275,329.7570,30.3156,0,U,57178,999,16999,.42278401E-3,.13022E-3,0
MONITOR-3 (RS58S),2023-091Q,2026-07-23T14:30:31.489632,15.28494284,.00101643,97.5064,268.3304,338.5754,21.5059,0,U,57180,999,16985,.37394662E-3,.10312E-3,0
MONITOR-4 (RS57S),2023-091S,2026-07-23T13:57:25.779168,15.28583152,.0010149,97.5058,268.2804,339.0352,21.0470,0,U,57182,999,16985,.38818133E-3,.10737E-3,0
MONITOR-2 (RS39S),2023-091U,2026-07-23T14:35:25.895904,15.19209526,.0010536,97.5053,262.6579,355.1304,4.9826,0,U,57184,999,16948,.20432914E-3,.4238E-4,0
SVYATOBOR 1 (RS60S),2023-091X,2026-07-23T13:28:48.595584,15.27166406,.00079207,97.5070,268.5897,332.9779,27.1046,0,U,57187,999,16986,.32029916E-3,.8464E-4,0
VIZARD-METEO (RS38S),2023-091Z,2026-07-23T14:46:37.517664,15.37078712,.00051714,97.5073,274.8554,302.2938,57.7805,0,U,57189,999,17028,.47393963E-3,.17138E-3,0
POLYTECH-UNIVERSE 3 (RS46S),2023-091AB,2026-07-23T13:32:33.985536,15.19423795,.00152399,97.5028,262.1186,9.4996,350.6523,0,U,57191,999,16947,.23578141E-3,.4939E-4,0
UTMN 2 (RS27S),2023-091AP,2026-07-23T13:28:09.068448,15.32853643,.00060907,97.5068,272.3034,315.6787,44.3966,0,U,57203,999,17011,.40337307E-3,.12733E-3,0
